start=new Date('2022-06-19T00:00:00.000Z').valueOf();
sats=[{"MEAN_ANOMALY":"294.6900","ELEMENT_SET_NO":"999","ARG_OF_PERICENTER":"65.4248","COUNTRY_CODE":"US","INCLINATION":"53.0538","EPOCH":"2022-06-15T11:12:07.641504","OBJECT_NAME":"STARLINK-1480","REF_FRAME":"TEME","TLE_LINE1":"1 45741U 20038M   22166.46675511 -.00001641  00000-0 -91291-4 0  9996","EPHEMERIS_TYPE":"0","FILE":"3496559","DECAY_DATE":null,"OBJECT_TYPE":"PAYLOAD","REV_AT_EPOCH":"11184","TIME_SYSTEM":"UTC","LAUNCH_DATE":"2020-06-13","PERIOD":"95.593","MEAN_MOTION":"15.06388986","CLASSIFICATION_TYPE":"U","BSTAR":"-0.00009129100000","ECCENTRICITY":"0.00015250","MEAN_MOTION_DDOT":"0.0000000000000","GP_ID":"206180646","RCS_SIZE":"LARGE","OBJECT_ID":"2020-038M","MEAN_MOTION_DOT":"-0.00001641","RA_OF_ASC_NODE":"236.3754","PERIAPSIS":"546.191","SEMIMAJOR_AXIS":"6925.382","TLE_LINE2":"2 45741  53.0538 236.3754 0001525  65.4248 294.6900 15.06388986111848","CENTER_NAME":"EARTH","MEAN_ELEMENT_THEORY":"SGP4","APOAPSIS":"548.303","SITE":"AFETR","NORAD_CAT_ID":"45741"},{"BSTAR":"-0.00009273800000","CLASSIFICATION_TYPE":"U","MEAN_MOTION":"15.06389320","PERIOD":"95.593","LAUNCH_DATE":"2020-06-13","TIME_SYSTEM":"UTC","OBJECT_ID":"2020-038N","MEAN_MOTION_DDOT":"0.0000000000000","GP_ID":"206286704","RCS_SIZE":"LARGE","ECCENTRICITY":"0.00016430","SEMIMAJOR_AXIS":"6925.381","PERIAPSIS":"546.108","RA_OF_ASC_NODE":"234.3059","MEAN_MOTION_DOT":"-0.00001662","NORAD_CAT_ID":"45742","SITE":"AFETR","APOAPSIS":"548.384","MEAN_ELEMENT_THEORY":"SGP4","CENTER_NAME":"EARTH","TLE_LINE2":"2 45742  53.0544 234.3059 0001643  59.8110 300.3042 15.06389320110785","ARG_OF_PERICENTER":"59.8110","ELEMENT_SET_NO":"999","MEAN_ANOMALY":"300.3042","EPOCH":"2022-06-15T22:10:17.525280","OBJECT_NAME":"STARLINK-1481","INCLINATION":"53.0544","COUNTRY_CODE":"US","TLE_LINE1":"1 45742U 20038N   22166.92381395 -.00001662  00000-0 -92738-4 0  9992","REF_FRAME":"TEME","REV_AT_EPOCH":"11078","OBJECT_TYPE":"PAYLOAD","DECAY_DATE":null,"EPHEMERIS_TYPE":"0","FILE":"3497002"},{"EPOCH":"2022-06-15T11:26:41.259552","OBJECT_NAME":"STARLINK-1483","COUNTRY_CODE":"US","INCLINATION":"53.0601","ARG_OF_PERICENTER":"33.3368","MEAN_ANOMALY":"326.7758","ELEMENT_SET_NO":"999","REV_AT_EPOCH":"11072","FILE":"3496794","EPHEMERIS_TYPE":"0","DECAY_DATE":null,"OBJECT_TYPE":"PAYLOAD","TLE_LINE1":"1 45743U 20038P   22166.47686643 -.00001619  00000-0 -89801-4 0  9996","REF_FRAME":"TEME","OBJECT_ID":"2020-038P","ECCENTRICITY":"0.00021750","MEAN_MOTION_DDOT":"0.0000000000000","GP_ID":"206206007","RCS_SIZE":"LARGE","MEAN_MOTION":"15.06391035","BSTAR":"-0.00008980100000","CLASSIFICATION_TYPE":"U","TIME_SYSTEM":"UTC","LAUNCH_DATE":"2020-06-13","PERIOD":"95.593","NORAD_CAT_ID":"45743","SITE":"AFETR","TLE_LINE2":"2 45743  53.0601 236.2394 0002175  33.3368 326.7758 15.06391035110722","CENTER_NAME":"EARTH","MEAN_ELEMENT_THEORY":"SGP4","APOAPSIS":"548.747","PERIAPSIS":"545.735","SEMIMAJOR_AXIS":"6925.376","MEAN_MOTION_DOT":"-0.00001619","RA_OF_ASC_NODE":"236.2394"},{"TIME_SYSTEM":"UTC","LAUNCH_DATE":"2020-06-13","PERIOD":"95.593","MEAN_MOTION":"15.06392836","CLASSIFICATION_TYPE":"U","BSTAR":"-0.00004849600000","ECCENTRICITY":"0.00016890","GP_ID":"206285206","RCS_SIZE":"LARGE","MEAN_MOTION_DDOT":"0.0000000000000","OBJECT_ID":"2020-038Q","MEAN_MOTION_DOT":"-0.00001004","RA_OF_ASC_NODE":"234.0584","PERIAPSIS":"546.066","SEMIMAJOR_AXIS":"6925.371","TLE_LINE2":"2 45744  53.0551 234.0584 0001689  57.4913 302.6239 15.06392836110802","MEAN_ELEMENT_THEORY":"SGP4","CENTER_NAME":"EARTH","APOAPSIS":"548.405","NORAD_CAT_ID":"45744","SITE":"AFETR","MEAN_ANOMALY":"302.6239","ELEMENT_SET_NO":"999","ARG_OF_PERICENTER":"57.4913","COUNTRY_CODE":"US","INCLINATION":"53.0551","OBJECT_NAME":"STARLINK-1500","EPOCH":"2022-06-15T23:29:54.448224","REF_FRAME":"TEME","TLE_LINE1":"1 45744U 20038Q   22166.97910241 -.00001004  00000-0 -48496-4 0  9999","EPHEMERIS_TYPE":"0","FILE":"3497002","DECAY_DATE":null,"OBJECT_TYPE":"PAYLOAD","REV_AT_EPOCH":"11080"},{"REF_FRAME":"TEME","TLE_LINE1":"1 45745U 20038R   22166.96804592 -.00001609  00000-0 -89165-4 0  9999","DECAY_DATE":null,"FILE":"3497002","EPHEMERIS_TYPE":"0","OBJECT_TYPE":"PAYLOAD","REV_AT_EPOCH":"11079","MEAN_ANOMALY":"285.7548","ELEMENT_SET_NO":"999","ARG_OF_PERICENTER":"74.3599","COUNTRY_CODE":"US","INCLINATION":"53.0531","OBJECT_NAME":"STARLINK-1503","EPOCH":"2022-06-15T23:13:59.167488","MEAN_MOTION_DOT":"-0.00001609","RA_OF_ASC_NODE":"234.1072","PERIAPSIS":"546.270","SEMIMAJOR_AXIS":"6925.395","TLE_LINE2":"2 45745  53.0531 234.1072 0001430  74.3599 285.7548 15.06384749110792","APOAPSIS":"548.251","MEAN_ELEMENT_THEORY":"SGP4","CENTER_NAME":"EARTH","NORAD_CAT_ID":"45745","SITE":"AFETR","TIME_SYSTEM":"UTC","PERIOD":"95.593","LAUNCH_DATE":"2020-06-13","MEAN_MOTION":"15.06384749","BSTAR":"-0.00008916500000","CLASSIFICATION_TYPE":"U","ECCENTRICITY":"0.00014300","GP_ID":"206285956","RCS_SIZE":"LARGE","MEAN_MOTION_DDOT":"0.0000000000000","OBJECT_ID":"2020-038R"},{"GP_ID":"206286204","RCS_SIZE":"LARGE","MEAN_MOTION_DDOT":"0.0000000000000","ECCENTRICITY":"0.00017790","OBJECT_ID":"2020-038S","PERIOD":"95.593","LAUNCH_DATE":"2020-06-13","TIME_SYSTEM":"UTC","CLASSIFICATION_TYPE":"U","BSTAR":"-0.00007757700000","MEAN_MOTION":"15.06389614","APOAPSIS":"548.477","CENTER_NAME":"EARTH","MEAN_ELEMENT_THEORY":"SGP4","TLE_LINE2":"2 45746  53.0562 234.3442 0001779  51.5414 308.5735 15.06389614110786","NORAD_CAT_ID":"45746","SITE":"AFETR","RA_OF_ASC_NODE":"234.3442","MEAN_MOTION_DOT":"-0.00001437","SEMIMAJOR_AXIS":"6925.380","PERIAPSIS":"546.013","INCLINATION":"53.0562","COUNTRY_CODE":"US","OBJECT_NAME":"STARLINK-1504","EPOCH":"2022-06-15T21:59:40.717536","ELEMENT_SET_NO":"999","MEAN_ANOMALY":"308.5735","ARG_OF_PERICENTER":"51.5414","OBJECT_TYPE":"PAYLOAD","DECAY_DATE":null,"FILE":"3497002","EPHEMERIS_TYPE":"0","REV_AT_EPOCH":"11078","REF_FRAME":"TEME","TLE_LINE1":"1 45746U 20038S   22166.91644349 -.00001437  00000-0 -77577-4 0  9990"},{"SITE":"AFETR","NORAD_CAT_ID":"45747","TLE_LINE2":"2 45747  53.0540 234.3318 0001556  62.7411 297.3736 15.06406436110798","MEAN_ELEMENT_THEORY":"SGP4","CENTER_NAME":"EARTH","APOAPSIS":"548.271","PERIAPSIS":"546.116","SEMIMAJOR_AXIS":"6925.329","MEAN_MOTION_DOT":"-0.00004872","RA_OF_ASC_NODE":"234.3318","OBJECT_ID":"2020-038T","ECCENTRICITY":"0.00015560","RCS_SIZE":"LARGE","GP_ID":"206286952","MEAN_MOTION_DDOT":"0.0000000000000","MEAN_MOTION":"15.06406436","CLASSIFICATION_TYPE":"U","BSTAR":"-0.00030837000000","TIME_SYSTEM":"UTC","PERIOD":"95.592","LAUNCH_DATE":"2020-06-13","REV_AT_EPOCH":"11079","FILE":"3497002","EPHEMERIS_TYPE":"0","DECAY_DATE":null,"OBJECT_TYPE":"PAYLOAD","TLE_LINE1":"1 45747U 20038T   22166.92011936 -.00004872  00000-0 -30837-3 0  9995","REF_FRAME":"TEME","OBJECT_NAME":"STARLINK-1506","EPOCH":"2022-06-15T22:04:58.312704","COUNTRY_CODE":"US","INCLINATION":"53.0540","ARG_OF_PERICENTER":"62.7411","MEAN_ANOMALY":"297.3736","ELEMENT_SET_NO":"999"},{"TLE_LINE1":"1 45748U 20038U   22166.90810929 -.00004915  00000-0 -31114-3 0  9990","REF_FRAME":"TEME","REV_AT_EPOCH":"11078","FILE":"3497002","EPHEMERIS_TYPE":"0","DECAY_DATE":null,"OBJECT_TYPE":"PAYLOAD","ARG_OF_PERICENTER":"50.4248","MEAN_ANOMALY":"309.6862","ELEMENT_SET_NO":"999","OBJECT_NAME":"STARLINK-1507","EPOCH":"2022-06-15T21:47:40.642656","COUNTRY_CODE":"US","INCLINATION":"53.0544","PERIAPSIS":"546.208","SEMIMAJOR_AXIS":"6925.295","MEAN_MOTION_DOT":"-0.00004915","RA_OF_ASC_NODE":"234.3755","SITE":"AFETR","NORAD_CAT_ID":"45748","TLE_LINE2":"2 45748  53.0544 234.3755 0001374  50.4248 309.6862 15.06417610110780","MEAN_ELEMENT_THEORY":"SGP4","CENTER_NAME":"EARTH","APOAPSIS":"548.111","MEAN_MOTION":"15.06417610","BSTAR":"-0.00031114000000","CLASSIFICATION_TYPE":"U","TIME_SYSTEM":"UTC","LAUNCH_DATE":"2020-06-13","PERIOD":"95.591","OBJECT_ID":"2020-038U","ECCENTRICITY":"0.00013740","RCS_SIZE":"LARGE","GP_ID":"206285707","MEAN_MOTION_DDOT":"0.0000000000000"},{"FILE":"3496999","EPHEMERIS_TYPE":"0","DECAY_DATE":null,"OBJECT_TYPE":"PAYLOAD","REV_AT_EPOCH":"11107","REF_FRAME":"TEME","TLE_LINE1":"1 45750U 20038W   22166.87034994  .00000000  00000-0  18914-4 0  9992","COUNTRY_CODE":"US","INCLINATION":"53.0536","OBJECT_NAME":"STARLINK-1391","EPOCH":"2022-06-15T20:53:18.234816","MEAN_ANOMALY":"300.5481","ELEMENT_SET_NO":"999","ARG_OF_PERICENTER":"59.5682","TLE_LINE2":"2 45750  53.0536 214.5546 0001763  59.5682 300.5481 15.06403737111071","MEAN_ELEMENT_THEORY":"SGP4","CENTER_NAME":"EARTH","APOAPSIS":"548.423","SITE":"AFETR","NORAD_CAT_ID":"45750","MEAN_MOTION_DOT":"0.00000000","RA_OF_ASC_NODE":"214.5546","PERIAPSIS":"545.981","SEMIMAJOR_AXIS":"6925.337","ECCENTRICITY":"0.00017630","MEAN_MOTION_DDOT":"0.0000000000000","GP_ID":"206234701","RCS_SIZE":"LARGE","OBJECT_ID":"2020-038W","TIME_SYSTEM":"UTC","LAUNCH_DATE":"2020-06-13","PERIOD":"95.592","MEAN_MOTION":"15.06403737","CLASSIFICATION_TYPE":"U","BSTAR":"0.00001891400000"},{"REV_AT_EPOCH":"11107","DECAY_DATE":null,"EPHEMERIS_TYPE":"0","FILE":"3496999","OBJECT_TYPE":"PAYLOAD","TLE_LINE1":"1 45751U 20038X   22166.86668019 -.00000640  00000-0 -24062-4 0  9996","REF_FRAME":"TEME","OBJECT_NAME":"STARLINK-1464","EPOCH":"2022-06-15T20:48:01.168416","COUNTRY_CODE":"US","INCLINATION":"53.0554","ARG_OF_PERICENTER":"52.4270","MEAN_ANOMALY":"307.6868","ELEMENT_SET_NO":"999","SITE":"AFETR","NORAD_CAT_ID":"45751","TLE_LINE2":"2 45751  53.0554 214.5804 0001650  52.4270 307.6868 15.06393820111077","APOAPSIS":"548.375","MEAN_ELEMENT_THEORY":"SGP4","CENTER_NAME":"EARTH","PERIAPSIS":"546.090","SEMIMAJOR_AXIS":"6925.367","MEAN_MOTION_DOT":"-0.00000640","RA_OF_ASC_NODE":"214.5804","OBJECT_ID":"2020-038X","ECCENTRICITY":"0.00016500","GP_ID":"206234951","RCS_SIZE":"LARGE","MEAN_MOTION_DDOT":"0.0000000000000","MEAN_MOTION":"15.06393820","BSTAR":"-0.00002406200000","CLASSIFICATION_TYPE":"U","TIME_SYSTEM":"UTC","LAUNCH_DATE":"2020-06-13","PERIOD":"95.593"}];
